{
    "links": {
        "self": "http://www.neowsapp.com/rest/v1/neo/3766050?api_key=iIulBulltgU6a56xZRHN4H3l9WmuAYTsLGpBGhQ2"
    },
    "id": "3766050",
    "neo_reference_id": "3766050",
    "name": "(2016 YJ)",
    "designation": "2016 YJ",
    "nasa_jpl_url": "http://ssd.jpl.nasa.gov/sbdb.cgi?sstr=3766050",
    "absolute_magnitude_h": 27.1,
    "estimated_diameter": {
        "kilometers": {
            "estimated_diameter_min": 0.0101054342,
            "estimated_diameter_max": 0.0225964377
        },
        "meters": {
            "estimated_diameter_min": 10.1054341542,
            "estimated_diameter_max": 22.5964377109
        },
        "miles": {
            "estimated_diameter_min": 0.0062792237,
            "estimated_diameter_max": 0.0140407711
        },
        "feet": {
            "estimated_diameter_min": 33.1543125905,
            "estimated_diameter_max": 74.1352966996
        }
    },
    "is_potentially_hazardous_asteroid": false,
    "close_approach_data": [
        {
            "close_approach_date": "2016-12-22",
            "close_approach_date_full": "2016-Dec-22 10:22",
            "epoch_date_close_approach": 1482402120000,
            "relative_velocity": {
                "kilometers_per_second": "9.3619620302",
                "kilometers_per_hour": "33703.0633086262",
                "miles_per_hour": "20941.7728652961"
            },
            "miss_distance": {
                "astronomical": "0.0031275979",
                "lunar": "1.2166355831",
                "kilometers": "467881.984056473",
                "miles": "290728.3836384074"
            },
            "orbiting_body": "Earth"
        },
        {
            "close_approach_date": "2016-12-22",
            "close_approach_date_full": "2016-Dec-22 20:47",
            "epoch_date_close_approach": 1482439620000,
            "relative_velocity": {
                "kilometers_per_second": "8.7377992002",
                "kilometers_per_hour": "31456.0771205549",
                "miles_per_hour": "19545.5830308248"
            },
            "miss_distance": {
                "astronomical": "0.0049709655",
                "lunar": "1.9337055795",
                "kilometers": "743645.850643485",
                "miles": "462080.104650693"
            },
            "orbiting_body": "Moon"
        }
    ],
    "orbital_data": {
        "orbit_id": "7",
        "orbit_determination_date": "2017-04-06 08:21:27",
        "first_observation_date": "2016-12-18",
        "last_observation_date": "2016-12-21",
        "data_arc_in_days": 3,
        "observations_used": 53,
        "orbit_uncertainty": "7",
        "minimum_orbit_intersection": ".000846289",
        "jupiter_tisserand_invariant": "4.129",
        "epoch_osculation": "2459000.5",
        "eccentricity": ".46048995990703",
        "semi_major_axis": "1.664347143759806",
        "inclination": "2.479412928615156",
        "ascending_node_longitude": "268.9596548167785",
        "orbital_period": "784.2676466102141",
        "perihelion_distance": ".8979319942584728",
        "perihelion_argument": "224.8058485297225",
        "aphelion_distance": "2.430762293261139",
        "perihelion_time": "2459346.383572959085",
        "mean_anomaly": "201.2301121900583",
        "mean_motion": ".4590269680969286",
        "equinox": "J2000",
        "orbit_class": {
            "orbit_class_type": "APO",
            "orbit_class_description": "Near-Earth asteroid orbits which cross the Earth’s orbit similar to that of 1862 Apollo",
            "orbit_class_range": "a (semi-major axis) > 1.0 AU; q (perihelion) < 1.017 AU"
        }
    },
    "is_sentry_object": false
}